{"type":"FeatureCollection","features":[{"type":"Feature","properties":{},"geometry":{"type":"LineString","coordinates":[[121.28457,24.1430222],[121.2846457,24.1426425],[121.2845984,24.1421852],[121.2845274,24.1419307],[121.2843525,24.1418918],[121.283648,24.1421075],[121.2834873,24.142086],[121.2833407,24.141935],[121.2831185,24.1418228],[121.2829483,24.1418832],[121.2826268,24.1420169],[121.2825133,24.1419781],[121.2824093,24.1419609],[121.2821918,24.1420385],[121.2820074,24.1419695],[121.2818466,24.1418918],[121.2817001,24.1418228],[121.281615,24.1416632],[121.2815092,24.1412108],[121.2813343,24.141008],[121.2811262,24.1409217],[121.2808709,24.1407189],[121.2807811,24.1404687],[121.2807953,24.1401968],[121.2807716,24.1400415],[121.2806826,24.1399699],[121.2805279,24.1399497],[121.280409,24.1398715],[121.2803897,24.1397353],[121.2804201,24.1395588],[121.2803482,24.1394402],[121.280246,24.1393217],[121.2800774,24.139241],[121.2799392,24.1391729],[121.2798922,24.1390291],[121.279834,24.138863],[121.279861,24.1386207],[121.2798217,24.1383694],[121.2798905,24.1381384],[121.2797897,24.1380082],[121.2795931,24.1378938],[121.2793595,24.1377458],[121.2792514,24.1376067],[121.2792735,24.1374721],[121.2793989,24.1373532],[121.2794185,24.1372814],[121.2793645,24.1371939],[121.2791727,24.1370862],[121.2791036,24.1368953],[121.2789539,24.1366329],[121.2787322,24.1364388],[121.2785285,24.1364661],[121.2784476,24.1365017],[121.2781869,24.1364114],[121.2780371,24.136436],[121.2775818,24.1366876],[121.2773991,24.1368543],[121.2770426,24.1369418],[121.2769497,24.1370621],[121.2768868,24.1372152],[121.2766561,24.1372726],[121.2764494,24.1372179],[121.2762231,24.1371452],[121.2753455,24.1372172],[121.2749116,24.1374632],[121.2744152,24.1376431],[121.2742542,24.1377961],[121.2736724,24.1379281],[121.273485,24.1378951],[121.2734193,24.1377541],[121.2734817,24.1375442],[121.2734324,24.1374182],[121.2732615,24.1373012],[121.2730906,24.1372592],[121.272992,24.1371932],[121.2729328,24.1371032],[121.2727947,24.1370522],[121.2726961,24.1369592],[121.2726496,24.1362139],[121.2724482,24.1356538],[121.2723865,24.135236],[121.2722649,24.1350199],[121.2721622,24.1345661],[121.2716682,24.1336439],[121.2715398,24.1329771],[121.2713325,24.1324503],[121.2712868,24.1320809],[121.2710967,24.1315123],[121.2710016,24.131326],[121.2710474,24.1311365],[121.2709313,24.1304202],[121.2707376,24.1297433],[121.2704907,24.1291118],[121.2706541,24.1287913],[121.2706019,24.1285469],[121.2706019,24.1283089],[121.2705637,24.1280614],[121.270668,24.1276552],[121.2706698,24.1275481],[121.2704767,24.1271293],[121.2706923,24.1265161],[121.2706565,24.1262937],[121.27087,24.1260766],[121.2709391,24.1258819],[121.270937,24.1257093],[121.2708052,24.1254645],[121.2707289,24.1252208],[121.2707349,24.1250082],[121.2706526,24.1248212],[121.2706631,24.1243061],[121.2708652,24.124063],[121.2712051,24.1236647],[121.2713429,24.1235767],[121.2714945,24.1233629],[121.271839,24.1231323],[121.272133,24.1227844],[121.2723902,24.1221891],[121.2727393,24.1219585],[121.2727668,24.1218579],[121.2727025,24.1217825],[121.2724866,24.1218076],[121.2714899,24.1220004],[121.2713521,24.1219082],[121.2712832,24.1217573],[121.2711224,24.1217154],[121.2709249,24.1218034],[121.2707407,24.1217986],[121.2704383,24.1216468],[121.2702317,24.121472],[121.2700704,24.121472],[121.2697579,24.121587],[121.2695664,24.1215502],[121.2693245,24.1214444],[121.2689213,24.1214214],[121.2688306,24.1213479],[121.2688961,24.1211731],[121.2690725,24.1211363],[121.269637,24.1213847],[121.2698688,24.1213755],[121.2701611,24.1212053],[121.2703929,24.1211823],[121.2707155,24.1212559],[121.2709675,24.1214122],[121.2710884,24.1213985],[121.2711489,24.1212927],[121.2709876,24.1211639],[121.2706752,24.1210535],[121.269773,24.1209799],[121.269637,24.1209109],[121.2693194,24.1207039],[121.2689515,24.1206257],[121.2684375,24.1205981],[121.2683367,24.1206579],[121.2681048,24.1209707],[121.2679285,24.1210535],[121.2675253,24.1212329],[121.2670868,24.1213709],[121.2668046,24.1214306],[121.2665879,24.1215226],[121.2661746,24.1214582],[121.2658672,24.1216882],[121.265716,24.1217204],[121.2655497,24.1216514],[121.2653581,24.1216882],[121.2648894,24.1213617],[121.2645787,24.121183],[121.2642288,24.1206034],[121.2637233,24.1204141],[121.2631789,24.1206152],[121.2628679,24.1204023],[121.2626087,24.120071],[121.2624661,24.1196452],[121.2621032,24.1198581],[121.2610922,24.1204851],[121.2607034,24.1203668],[121.2602887,24.1200237],[121.2600035,24.1196925],[121.2592259,24.1193968],[121.2588241,24.1194559],[121.2580076,24.1191602],[121.2573369,24.1190266],[121.2570566,24.1188112],[121.2566879,24.1187036],[121.2562159,24.118542],[121.2558324,24.1186228],[121.2555669,24.118367],[121.2550949,24.1181112],[121.2542837,24.1178554],[121.2540477,24.1173304],[121.2538265,24.1170073],[121.2535905,24.1168458],[121.2532955,24.1170612],[121.2531775,24.1173708],[121.2528382,24.1176266],[121.252558,24.1179497],[121.252027,24.118192],[121.2512158,24.1182997],[121.250611,24.1184074],[121.2502865,24.1182593],[121.2490328,24.1184882],[121.2486051,24.1184343],[121.2484133,24.1182189],[121.2478086,24.1182997],[121.2473366,24.1180574],[121.2468646,24.1183535],[121.2464664,24.1181516],[121.2462009,24.1179228],[121.2458174,24.117842],[121.2453159,24.1181651],[121.2449619,24.1187305],[121.2449472,24.1191209],[121.2451684,24.1193767],[121.2448144,24.1196863],[121.2442834,24.1199824],[121.2435902,24.1205075],[121.2430887,24.120494],[121.2428969,24.1208305],[121.2425577,24.1209921],[121.2422185,24.1209517],[121.241776,24.1208305],[121.2410532,24.1207498],[121.240773,24.1204805],[121.24036,24.1202651],[121.2399765,24.1200767],[121.2395635,24.1198209],[121.239239,24.1193228],[121.2388113,24.1187036],[121.2376018,24.1186362],[121.2367463,24.1177343],[121.2363481,24.1176939],[121.2361268,24.1175054],[121.2356696,24.1175593],[121.2355074,24.1173843],[121.2351534,24.1174247]]}}]}
