{"type":"FeatureCollection","features":[{"type":"Feature","properties":{},"geometry":{"type":"LineString","coordinates":[[121.417046,23.247033],[121.415397,23.247442],[121.414848,23.247971],[121.414377,23.249365],[121.412833,23.249846],[121.412624,23.251],[121.411028,23.251793],[121.410033,23.250663],[121.409248,23.249461],[121.409405,23.248716],[121.409484,23.248187],[121.40883,23.248187],[121.409013,23.249076],[121.40883,23.25011],[121.408908,23.251],[121.407286,23.25261],[121.405193,23.25124],[121.403413,23.251817],[121.402576,23.251697],[121.401896,23.25124],[121.400875,23.251192],[121.40009,23.250855],[121.398697,23.25181],[121.3949,23.252668],[121.393882,23.253213],[121.392291,23.252902],[121.390382,23.253642],[121.388113,23.254188],[121.386967,23.253798],[121.386543,23.253798],[121.386034,23.254285],[121.38404,23.254811],[121.383955,23.255182],[121.384295,23.255532],[121.384867,23.255104],[121.386564,23.254636],[121.38701,23.254753],[121.387455,23.25563],[121.388494,23.255786],[121.388834,23.256784],[121.388389,23.257739],[121.388389,23.258791],[121.388071,23.259103],[121.387074,23.259532],[121.385928,23.259551],[121.385016,23.261032],[121.385377,23.261422],[121.38701,23.261831],[121.387371,23.262202],[121.387307,23.262884],[121.386162,23.264033],[121.367025,23.267282],[121.36064,23.268257],[121.357161,23.266464],[121.355761,23.266932],[121.354192,23.266581],[121.352643,23.265665],[121.350458,23.265548],[121.349058,23.266639],[121.348422,23.267789],[121.347637,23.268588],[121.34787,23.269017],[121.348634,23.268997],[121.34944,23.267906],[121.350734,23.267711],[121.351158,23.26814],[121.351539,23.269075],[121.351815,23.271024],[121.351794,23.273343],[121.351094,23.27383],[121.351327,23.274395],[121.351836,23.274317],[121.352409,23.27383],[121.352918,23.273674],[121.353152,23.274005],[121.35277,23.274395],[121.352239,23.274687],[121.351773,23.275427],[121.35067,23.276032],[121.349584,23.277148],[121.349096,23.278181],[121.347887,23.27896],[121.346678,23.279175],[121.346339,23.279759],[121.346475,23.281023],[121.346284,23.281627],[121.345351,23.281568],[121.344121,23.280828],[121.342551,23.28038],[121.341194,23.281003],[121.340112,23.281997],[121.340507,23.285825],[121.339935,23.287812],[121.338491,23.289235],[121.338215,23.290326],[121.33777,23.290677],[121.336285,23.290697],[121.335182,23.290911],[121.334715,23.292645],[121.334087,23.297221],[121.333429,23.297611]]}}]}
